{
    "satellites": [
        {
            "name": "starlink327",
            "title": "Starlink-327 (G11-30)",
            "tle": [
                "1 66643C 25271AC  25339.76576389 -.00086419  00000+0 -58873-3 0  3396",
                "2 66643  53.1581 221.2464 0001322  98.5577 335.8093 15.74279945    15"
            ],
            "stdMag": 5,
            "noradId": "66643",
            "tleUrl": "http://celestrak.org/NORAD/elements/supplemental/sup-gp.php?FILE=starlink&FORMAT=tle",
            "launchDate": "2025-11-23T08:48:00.000Z",
            "active": true,
            "batch": [
                {
                    "noradId": "66643",
                    "tle": [
                        "1 66643C 25271AC  25339.76576389 -.00086419  00000+0 -58873-3 0  3396",
                        "2 66643  53.1581 221.2464 0001322  98.5577 335.8093 15.74279945    15"
                    ]
                },
                {
                    "noradId": "66644",
                    "tle": [
                        "1 66644C 25271AD  25339.77340278 -.00030524  00000+0 -20798-3 0  3395",
                        "2 66644  53.1579 221.2040 0000236  94.1590  25.4762 15.74220548    13"
                    ]
                },
                {
                    "noradId": "66642",
                    "tle": [
                        "1 66642C 25271AB  25339.76923611 -.00034605  00000+0 -23582-3 0  3398",
                        "2 66642  53.1583 221.2206 0000306 123.8696 334.0640 15.74221790    19"
                    ]
                },
                {
                    "noradId": "66641",
                    "tle": [
                        "1 66641C 25271AA  25339.76854167 -.00034035  00000+0 -23201-3 0  3391",
                        "2 66641  53.1577 221.2193 0000282 109.8537 346.0754 15.74214693    10"
                    ]
                },
                {
                    "noradId": "66640",
                    "tle": [
                        "1 66640C 25271Z   25339.77062500 -.00379730  00000+0 -25767-2 0  3395",
                        "2 66640  53.1579 221.2269 0000706 153.4997 306.0897 15.74666453    10"
                    ]
                },
                {
                    "noradId": "66639",
                    "tle": [
                        "1 66639C 25271Y   25339.76645833 -.00424040  00000+0 -28754-2 0  3392",
                        "2 66639  53.1577 221.2513 0000398 108.7541 325.2331 15.74726309    16"
                    ]
                },
                {
                    "noradId": "66638",
                    "tle": [
                        "1 66638C 25271X   25339.77201389 -.00450140  00000+0 -30545-2 0  3397",
                        "2 66638  53.1578 221.2281 0000186 308.3776 155.1692 15.74736645    15"
                    ]
                },
                {
                    "noradId": "66637",
                    "tle": [
                        "1 66637C 25271W   25339.77062500 -.00529530  00000+0 -35854-2 0  3394",
                        "2 66637  53.1576 221.2391 0000669 124.0374 329.6075 15.74866128    10"
                    ]
                },
                {
                    "noradId": "66636",
                    "tle": [
                        "1 66636C 25271V   25339.77131944 -.00564160  00000+0 -38172-2 0  3396",
                        "2 66636  53.1578 221.2394 0001000 144.7734 310.8065 15.74916942    14"
                    ]
                },
                {
                    "noradId": "66635",
                    "tle": [
                        "1 66635C 25271U   25339.76715278 -.00631880  00000+0 -42704-2 0  3392",
                        "2 66635  53.1578 221.2645 0000779 114.7703 315.1807 15.75012769    14"
                    ]
                },
                {
                    "noradId": "66634",
                    "tle": [
                        "1 66634C 25271T   25339.77062500 -.00738560  00000+0 -49814-2 0  3397",
                        "2 66634  53.1576 221.2518 0000688 132.4473 315.0918 15.75166037    10"
                    ]
                },
                {
                    "noradId": "66633",
                    "tle": [
                        "1 66633C 25271S   25339.76715278 -.00783210  00000+0 -52774-2 0  3393",
                        "2 66633  53.1577 221.2734 0001000 135.0943 290.7508 15.75233167    13"
                    ]
                },
                {
                    "noradId": "66632",
                    "tle": [
                        "1 66632C 25271R   25339.76576389 -.00857680  00000+0 -57699-2 0  3394",
                        "2 66632  53.1579 221.2850 0000741 143.4298 272.4786 15.75345835    11"
                    ]
                },
                {
                    "noradId": "66631",
                    "tle": [
                        "1 66631C 25271Q   25339.77131944 -.00920010  00000+0 -61810-2 0  3396",
                        "2 66631  53.1581 221.2618 0000886 117.9644 327.4199 15.75439077    17"
                    ]
                },
                {
                    "noradId": "66630",
                    "tle": [
                        "1 66630C 25271P   25339.77201389 -.00916580  00000+0 -61572-2 0  3398",
                        "2 66630  53.1580 221.2621 0000395  99.4360 347.9524 15.75438986    10"
                    ]
                },
                {
                    "noradId": "66629",
                    "tle": [
                        "1 66629C 25271N   25339.77270833 -.00973800  00000+0 -65331-2 0  3391",
                        "2 66629  53.1580 221.2633 0000813 108.0403 341.2648 15.75526303    16"
                    ]
                },
                {
                    "noradId": "66628",
                    "tle": [
                        "1 66628C 25271M   25339.77201389 -.01056400  00000+0 -70719-2 0  3395",
                        "2 66628  53.1579 221.2708 0000545 128.5450 314.7231 15.75660815    17"
                    ]
                },
                {
                    "noradId": "66627",
                    "tle": [
                        "1 66627C 25271L   25339.76923611 -.01126500  00000+0 -75253-2 0  3399",
                        "2 66627  53.1579 221.2890 0000811 128.4727 296.9568 15.75779332    19"
                    ]
                },
                {
                    "noradId": "66626",
                    "tle": [
                        "1 66626C 25271K   25339.77131944 -.01213900  00000+0 -80862-2 0  3392",
                        "2 66626  53.1580 221.2832 0000817 114.6223 320.4729 15.75933572    10"
                    ]
                },
                {
                    "noradId": "66625",
                    "tle": [
                        "1 66625C 25271J   25339.77062500 -.01291100  00000+0 -85754-2 0  3395",
                        "2 66625  53.1582 221.2915 0000778 120.9439 308.0627 15.76079947    15"
                    ]
                },
                {
                    "noradId": "66624",
                    "tle": [
                        "1 66624C 25271H   25339.77131944 -.01408400  00000+0 -93212-2 0  3394",
                        "2 66624  53.1581 221.2967 0000575 121.1790 307.6070 15.76281184    13"
                    ]
                },
                {
                    "noradId": "66623",
                    "tle": [
                        "1 66623C 25271G   25339.77131944 -.01404600  00000+0 -93070-2 0  3393",
                        "2 66623  53.1580 221.2925 0000876 125.2679 305.5069 15.76249801    15"
                    ]
                },
                {
                    "noradId": "66622",
                    "tle": [
                        "1 66622C 25271F   25339.77270833 -.01380000  00000+0 -91215-2 0  3399",
                        "2 66622  53.1581 221.2939 0000752 107.6917 327.0104 15.76281453    10"
                    ]
                },
                {
                    "noradId": "66621",
                    "tle": [
                        "1 66621C 25271E   25339.77062500 -.00012403  00000+0 -84572-4 0  3396",
                        "2 66621  53.1585 221.1989 0000988  87.8680  25.0162 15.74185865    11"
                    ]
                },
                {
                    "noradId": "66620",
                    "tle": [
                        "1 66620C 25271D   25339.76576389 -.01520500  00000+0 -99455-2 0  3396",
                        "2 66620  53.1584 221.3463 0000807 105.7194 281.1434 15.76665131    16"
                    ]
                },
                {
                    "noradId": "66619",
                    "tle": [
                        "1 66619C 25271C   25339.76784722 -.01445900  00000+0 -95203-2 0  3393",
                        "2 66619  53.1580 221.3224 0000675 116.1081 288.8158 15.76436672    12"
                    ]
                },
                {
                    "noradId": "66618",
                    "tle": [
                        "1 66618C 25271B   25339.77201389  .00032941  00000+0  22478-3 0  3395",
                        "2 66618  53.1586 221.1997 0000856  67.0549  50.1727 15.74123550    14"
                    ]
                },
                {
                    "noradId": "66617",
                    "tle": [
                        "1 66617C 25271A   25339.77201389 -.01522600  00000+0 -99510-2 0  3393",
                        "2 66617  53.1583 221.3195 0001000 100.2863 320.0389 15.76686566    19"
                    ]
                }
            ]
        }
    ],
    "config": {}
}